[{"OBJECT_NAME":"STARLINK-32762","OBJECT_ID":"2025-014P","EPOCH":"2025-12-26T14:43:21.622944","MEAN_MOTION":15.27599251,"ECCENTRICITY":0.00012205,"INCLINATION":42.9967,"RA_OF_ASC_NODE":210.3422,"ARG_OF_PERICENTER":245.453,"MEAN_ANOMALY":114.6194,"EPHEMERIS_TYPE":0,"CLASSIFICATION_TYPE":"U","NORAD_CAT_ID":62748,"ELEMENT_SET_NO":999,"REV_AT_EPOCH":5204,"BSTAR":0.0011564001,"MEAN_MOTION_DOT":0.00031715,"MEAN_MOTION_DDOT":0},{"OBJECT_NAME":"STARLINK-32761","OBJECT_ID":"2025-014Q","EPOCH":"2025-12-26T06:56:16.823040","MEAN_MOTION":15.2757566,"ECCENTRICITY":9.841e-5,"INCLINATION":42.9979,"RA_OF_ASC_NODE":212.2113,"ARG_OF_PERICENTER":284.1204,"MEAN_ANOMALY":75.9538,"EPHEMERIS_TYPE":0,"CLASSIFICATION_TYPE":"U","NORAD_CAT_ID":62749,"ELEMENT_SET_NO":999,"REV_AT_EPOCH":5199,"BSTAR":0.00084372222,"MEAN_MOTION_DOT":0.00023025,"MEAN_MOTION_DDOT":0},{"OBJECT_NAME":"STARLINK-32763","OBJECT_ID":"2025-014R","EPOCH":"2025-12-26T00:31:05.293920","MEAN_MOTION":15.27597211,"ECCENTRICITY":0.00020627,"INCLINATION":43.0003,"RA_OF_ASC_NODE":210.1786,"ARG_OF_PERICENTER":267.7619,"MEAN_ANOMALY":92.2997,"EPHEMERIS_TYPE":0,"CLASSIFICATION_TYPE":"U","NORAD_CAT_ID":62750,"ELEMENT_SET_NO":999,"REV_AT_EPOCH":5199,"BSTAR":0.00068845,"MEAN_MOTION_DOT":0.00018741,"MEAN_MOTION_DDOT":0},{"OBJECT_NAME":"STARLINK-32759","OBJECT_ID":"2025-014S","EPOCH":"2025-12-25T00:19:24.359232","MEAN_MOTION":15.27577468,"ECCENTRICITY":8.359e-5,"INCLINATION":42.9979,"RA_OF_ASC_NODE":219.8484,"ARG_OF_PERICENTER":284.9267,"MEAN_ANOMALY":75.1492,"EPHEMERIS_TYPE":0,"CLASSIFICATION_TYPE":"U","NORAD_CAT_ID":62751,"ELEMENT_SET_NO":999,"REV_AT_EPOCH":5179,"BSTAR":0.00059877408,"MEAN_MOTION_DOT":0.0001625,"MEAN_MOTION_DDOT":0},{"OBJECT_NAME":"STARLINK-32756","OBJECT_ID":"2025-014T","EPOCH":"2025-12-26T14:14:39.723648","MEAN_MOTION":15.27595411,"ECCENTRICITY":0.0001176,"INCLINATION":42.9976,"RA_OF_ASC_NODE":207.594,"ARG_OF_PERICENTER":277.5751,"MEAN_ANOMALY":82.4967,"EPHEMERIS_TYPE":0,"CLASSIFICATION_TYPE":"U","NORAD_CAT_ID":62752,"ELEMENT_SET_NO":999,"REV_AT_EPOCH":5207,"BSTAR":0.0011725342,"MEAN_MOTION_DOT":0.0003216,"MEAN_MOTION_DDOT":0},{"OBJECT_NAME":"STARLINK-32751","OBJECT_ID":"2025-014U","EPOCH":"2025-12-25T23:58:00.094944","MEAN_MOTION":15.27605205,"ECCENTRICITY":0.00016906,"INCLINATION":43.0008,"RA_OF_ASC_NODE":210.8722,"ARG_OF_PERICENTER":277.635,"MEAN_ANOMALY":82.4309,"EPHEMERIS_TYPE":0,"CLASSIFICATION_TYPE":"U","NORAD_CAT_ID":62753,"ELEMENT_SET_NO":999,"REV_AT_EPOCH":5198,"BSTAR":0.0011410952,"MEAN_MOTION_DOT":0.00031296,"MEAN_MOTION_DDOT":0},{"OBJECT_NAME":"STARLINK-32740","OBJECT_ID":"2025-014V","EPOCH":"2025-12-25T00:42:05.732928","MEAN_MOTION":15.2759489,"ECCENTRICITY":0.0001611,"INCLINATION":42.9985,"RA_OF_ASC_NODE":215.6361,"ARG_OF_PERICENTER":272.959,"MEAN_ANOMALY":87.1077,"EPHEMERIS_TYPE":0,"CLASSIFICATION_TYPE":"U","NORAD_CAT_ID":62754,"ELEMENT_SET_NO":999,"REV_AT_EPOCH":5184,"BSTAR":0.00093900226,"MEAN_MOTION_DOT":0.00025679,"MEAN_MOTION_DDOT":0},{"OBJECT_NAME":"STARLINK-32745","OBJECT_ID":"2025-014W","EPOCH":"2025-12-26T07:32:07.866816","MEAN_MOTION":15.27580247,"ECCENTRICITY":0.00015212,"INCLINATION":43.0021,"RA_OF_ASC_NODE":208.9398,"ARG_OF_PERICENTER":268.4933,"MEAN_ANOMALY":91.5745,"EPHEMERIS_TYPE":0,"CLASSIFICATION_TYPE":"U","NORAD_CAT_ID":62755,"ELEMENT_SET_NO":999,"REV_AT_EPOCH":5203,"BSTAR":0.00078679602,"MEAN_MOTION_DOT":0.00021452,"MEAN_MOTION_DDOT":0},{"OBJECT_NAME":"STARLINK-33596","OBJECT_ID":"2025-015A","EPOCH":"2025-12-26T02:55:25.493376","MEAN_MOTION":15.30214868,"ECCENTRICITY":0.00012363,"INCLINATION":53.162,"RA_OF_ASC_NODE":304.4535,"ARG_OF_PERICENTER":58.2496,"MEAN_ANOMALY":301.8626,"EPHEMERIS_TYPE":0,"CLASSIFICATION_TYPE":"U","NORAD_CAT_ID":62758,"ELEMENT_SET_NO":999,"REV_AT_EPOCH":5314,"BSTAR":0.0012089612,"MEAN_MOTION_DOT":0.00035635,"MEAN_MOTION_DDOT":0},{"OBJECT_NAME":"STARLINK-33589","OBJECT_ID":"2025-015B","EPOCH":"2025-12-26T06:00:30.877632","MEAN_MOTION":15.30202327,"ECCENTRICITY":0.00014767,"INCLINATION":53.1617,"RA_OF_ASC_NODE":303.8337,"ARG_OF_PERICENTER":67.5207,"MEAN_ANOMALY":292.595,"EPHEMERIS_TYPE":0,"CLASSIFICATION_TYPE":"U","NORAD_CAT_ID":62759,"ELEMENT_SET_NO":999,"REV_AT_EPOCH":5247,"BSTAR":0.00093085208,"MEAN_MOTION_DOT":0.00027313,"MEAN_MOTION_DDOT":0},{"OBJECT_NAME":"STARLINK-33575","OBJECT_ID":"2025-015C","EPOCH":"2025-12-26T05:36:10.239840","MEAN_MOTION":15.30203875,"ECCENTRICITY":0.00011038,"INCLINATION":53.1608,"RA_OF_ASC_NODE":303.6956,"ARG_OF_PERICENTER":116.2818,"MEAN_ANOMALY":243.8296,"EPHEMERIS_TYPE":0,"CLASSIFICATION_TYPE":"U","NORAD_CAT_ID":62760,"ELEMENT_SET_NO":999,"REV_AT_EPOCH":5247,"BSTAR":0.00088412543,"MEAN_MOTION_DOT":0.00025921,"MEAN_MOTION_DDOT":0},{"OBJECT_NAME":"STARLINK-33584","OBJECT_ID":"2025-015D","EPOCH":"2025-12-26T06:50:28.624992","MEAN_MOTION":15.30193365,"ECCENTRICITY":8.873e-5,"INCLINATION":53.1585,"RA_OF_ASC_NODE":303.3414,"ARG_OF_PERICENTER":91.003,"MEAN_ANOMALY":269.1073,"EPHEMERIS_TYPE":0,"CLASSIFICATION_TYPE":"U","NORAD_CAT_ID":62761,"ELEMENT_SET_NO":999,"REV_AT_EPOCH":5324,"BSTAR":0.00093791372,"MEAN_MOTION_DOT":0.00027516,"MEAN_MOTION_DDOT":0},{"OBJECT_NAME":"STARLINK-33577","OBJECT_ID":"2025-015E","EPOCH":"2025-12-26T03:13:29.378784","MEAN_MOTION":15.30213185,"ECCENTRICITY":0.00014122,"INCLINATION":53.1605,"RA_OF_ASC_NODE":303.8212,"ARG_OF_PERICENTER":81.2784,"MEAN_ANOMALY":278.8377,"EPHEMERIS_TYPE":0,"CLASSIFICATION_TYPE":"U","NORAD_CAT_ID":62762,"ELEMENT_SET_NO":999,"REV_AT_EPOCH":5322,"BSTAR":0.00057917189,"MEAN_MOTION_DOT":0.0001684,"MEAN_MOTION_DDOT":0},{"OBJECT_NAME":"STARLINK-33597","OBJECT_ID":"2025-015F","EPOCH":"2025-12-26T13:58:21.551232","MEAN_MOTION":15.30201339,"ECCENTRICITY":0.00021069,"INCLINATION":53.1612,"RA_OF_ASC_NODE":302.3428,"ARG_OF_PERICENTER":93.3736,"MEAN_ANOMALY":266.7506,"EPHEMERIS_TYPE":0,"CLASSIFICATION_TYPE":"U","NORAD_CAT_ID":62763,"ELEMENT_SET_NO":999,"REV_AT_EPOCH":5328,"BSTAR":0.0011634765,"MEAN_MOTION_DOT":0.00034261,"MEAN_MOTION_DDOT":0},{"OBJECT_NAME":"STARLINK-33579","OBJECT_ID":"2025-015G","EPOCH":"2025-12-26T06:14:00.240000","MEAN_MOTION":15.30206946,"ECCENTRICITY":8.344e-5,"INCLINATION":53.1606,"RA_OF_ASC_NODE":303.1829,"ARG_OF_PERICENTER":86.2113,"MEAN_ANOMALY":273.8983,"EPHEMERIS_TYPE":0,"CLASSIFICATION_TYPE":"U","NORAD_CAT_ID":62764,"ELEMENT_SET_NO":999,"REV_AT_EPOCH":5324,"BSTAR":0.0012872039,"MEAN_MOTION_DOT":0.00037967,"MEAN_MOTION_DDOT":0},{"OBJECT_NAME":"STARLINK-33592","OBJECT_ID":"2025-015H","EPOCH":"2025-12-26T05:40:43.985280","MEAN_MOTION":15.30208754,"ECCENTRICITY":0.00010237,"INCLINATION":53.1608,"RA_OF_ASC_NODE":303.7444,"ARG_OF_PERICENTER":107.2627,"MEAN_ANOMALY":252.8486,"EPHEMERIS_TYPE":0,"CLASSIFICATION_TYPE":"U","NORAD_CAT_ID":62765,"ELEMENT_SET_NO":999,"REV_AT_EPOCH":5310,"BSTAR":0.0013780465,"MEAN_MOTION_DOT":0.00040689,"MEAN_MOTION_DDOT":0}]
