STARLINK-32762          
1 62748U 25014P   25360.61344471  .00031715  00000+0  11564-2 0  9990
2 62748  42.9967 210.3422 0001220 245.4530 114.6194 15.27599251 52041
STARLINK-32761          
1 62749U 25014Q   25360.28908360  .00023025  00000+0  84372-3 0  9990
2 62749  42.9979 212.2113 0000984 284.1204  75.9538 15.27575660 51999
STARLINK-32763          
1 62750U 25014R   25360.02158905  .00018741  00000+0  68845-3 0  9992
2 62750  43.0003 210.1786 0002062 267.7619  92.2997 15.27597211 51997
STARLINK-32759          
1 62751U 25014S   25359.01347638  .00016250  00000+0  59877-3 0  9991
2 62751  42.9979 219.8484 0000835 284.9267  75.1492 15.27577468 51795
STARLINK-32756          
1 62752U 25014T   25360.59351532  .00032160  00000+0  11725-2 0  9992
2 62752  42.9976 207.5940 0001176 277.5751  82.4967 15.27595411 52077
STARLINK-32751          
1 62753U 25014U   25359.99861221  .00031296  00000+0  11411-2 0  9997
2 62753  43.0008 210.8722 0001690 277.6350  82.4309 15.27605205 51980
STARLINK-32740          
1 62754U 25014V   25359.02923302  .00025679  00000+0  93900-3 0  9993
2 62754  42.9985 215.6361 0001611 272.9590  87.1077 15.27594890 51848
STARLINK-32745          
1 62755U 25014W   25360.31397994  .00021452  00000+0  78680-3 0  9993
2 62755  43.0021 208.9398 0001521 268.4933  91.5745 15.27580247 52032
STARLINK-33596          
1 62758U 25015A   25360.12182284  .00035635  00000+0  12090-2 0  9990
2 62758  53.1620 304.4535 0001236  58.2496 301.8626 15.30214868 53144
STARLINK-33589          
1 62759U 25015B   25360.25035738  .00027313  00000+0  93085-3 0  9994
2 62759  53.1617 303.8337 0001476  67.5207 292.5950 15.30202327 52471
STARLINK-33575          
1 62760U 25015C   25360.23345185  .00025921  00000+0  88413-3 0  9996
2 62760  53.1608 303.6956 0001103 116.2818 243.8296 15.30203875 52476
STARLINK-33584          
1 62761U 25015D   25360.28505353  .00027516  00000+0  93791-3 0  9994
2 62761  53.1585 303.3414 0000887  91.0030 269.1073 15.30193365 53243
STARLINK-33577          
1 62762U 25015E   25360.13436781  .00016840  00000+0  57917-3 0  9995
2 62762  53.1605 303.8212 0001412  81.2784 278.8377 15.30213185 53225
STARLINK-33597          
1 62763U 25015F   25360.58219388  .00034261  00000+0  11635-2 0  9990
2 62763  53.1612 302.3428 0002106  93.3736 266.7506 15.30201339 53283
STARLINK-33579          
1 62764U 25015G   25360.25972500  .00037967  00000+0  12872-2 0  9997
2 62764  53.1606 303.1829 0000834  86.2113 273.8983 15.30206946 53240
STARLINK-33592          
1 62765U 25015H   25360.23662020  .00040689  00000+0  13780-2 0  9993
2 62765  53.1608 303.7444 0001023 107.2627 252.8486 15.30208754 53106
